LEMUR-1                 
1 40044U 14033AL  25068.87640325  .00005752  00000+0  71192-3 0  9990
2 40044  97.7254 226.7181 0051869 158.8952 201.4418 14.82149429576611
LEMUR-2-GREENBERG       
1 42837U 17042N   25068.48745910  .00021591  00000+0  11577-2 0  9997
2 42837  97.3649 252.6235 0012242 196.5240 163.5595 15.14925074417663
LEMUR-2-ANDIS           
1 42838U 17042P   25068.48529832  .00028200  00000+0  14971-2 0  9996
2 42838  97.3602 252.2247 0013390 204.1071 155.9537 15.15208916417655
LEMUR-2-MONSON          
1 42839U 17042Q   25068.56128841  .00021850  00000+0  12464-2 0  9990
2 42839  97.3959 252.8052 0009164 182.8962 177.2217 15.12739802417579
LEMUR-2-FURIAUS         
1 42840U 17042R   25068.55544745  .00023142  00000+0  12957-2 0  9999
2 42840  97.3648 251.9219 0010683 250.0367 109.9715 15.13383744417572
LEMUR-2-PETERG          
1 42841U 17042S   25068.85044257  .00021086  00000+0  11360-2 0  9998
2 42841  97.3935 255.3473 0005414 175.6668 184.4612 15.14814477417728
LEMUR-2-DEMBITZ         
1 42842U 17042T   25068.48787645  .00021435  00000+0  11880-2 0  9998
2 42842  97.3766 254.0141 0009425 204.8282 155.2497 15.13774992417679
LEMUR-2-ZACHARY         
1 42845U 17042W   25068.47192341  .00032812  00000+0  15003-2 0  9995
2 42845  97.3729 256.5808 0005701 238.4861 121.5818 15.20459053417991
LEMUR-2-JIN-LUEN        
1 43182U 18014C   25068.73421435  .00043282  00000+0  15256-2 0  9991
2 43182  97.5661 338.8824 0010780 137.1439 223.0642 15.29092802389089
LEMUR-2-URAMCHANSOL     
1 43183U 18014D   25068.68891852  .00152477  00000+0  24792-2 0  9992
2 43183  97.5518 344.2875 0011897 109.8723 250.3812 15.52068380389431
LEMUR-2-KADI            
1 43184U 18014E   25068.86849559  .00034522  00000+0  12100-2 0  9990
2 43184  97.5296 337.9010 0010527 114.5036 245.7303 15.29331107389149
LEMUR-2-THENICKMOLO     
1 43185U 18014F   25068.75481202  .00074852  00000+0  18862-2 0  9997
2 43185  97.5680 341.7348 0007656 107.0453 253.1631 15.39584230389283
LEMUR-2-REMY-COLTON     
1 43884U 18111J   25068.73954893  .00303750  00000+0  32840-2 0  9994
2 43884  97.6163 357.2560 0007917 115.2786 244.9293 15.62588363338591
LEMUR-2-GUSTAVO         
1 43885U 18111K   25068.78155012  .00197871  00000+0  23343-2 0  9999
2 43885  97.6126 355.8399 0010887 101.2927 258.9553 15.60625464340518
LEMUR-2-ZO              
1 43886U 18111L   25068.75910000  .00201995  00000+0  27030-2 0  9993
2 43886  97.6047 354.5817 0011577 109.0573 251.1936 15.57252545340491
LEMUR-2-NATALIEMURRAY   
1 43887U 18111M   25068.79261883  .00385366  00000+0  32332-2 0  9992
2 43887  97.6054 357.3342 0011594  95.2160 265.0424 15.68692768340584
