[{"OBJECT_NAME":"LEMUR-1","OBJECT_ID":"2014-033AL","EPOCH":"2025-03-09T21:02:01.240800","MEAN_MOTION":14.82149429,"ECCENTRICITY":0.0051869,"INCLINATION":97.7254,"RA_OF_ASC_NODE":226.7181,"ARG_OF_PERICENTER":158.8952,"MEAN_ANOMALY":201.4418,"EPHEMERIS_TYPE":0,"CLASSIFICATION_TYPE":"U","NORAD_CAT_ID":40044,"ELEMENT_SET_NO":999,"REV_AT_EPOCH":57661,"BSTAR":0.00071192,"MEAN_MOTION_DOT":5.752e-5,"MEAN_MOTION_DDOT":0},{"OBJECT_NAME":"LEMUR-2-GREENBERG","OBJECT_ID":"2017-042N","EPOCH":"2025-03-09T11:41:56.466240","MEAN_MOTION":15.14925074,"ECCENTRICITY":0.0012242,"INCLINATION":97.3649,"RA_OF_ASC_NODE":252.6235,"ARG_OF_PERICENTER":196.524,"MEAN_ANOMALY":163.5595,"EPHEMERIS_TYPE":0,"CLASSIFICATION_TYPE":"U","NORAD_CAT_ID":42837,"ELEMENT_SET_NO":999,"REV_AT_EPOCH":41766,"BSTAR":0.0011577,"MEAN_MOTION_DOT":0.00021591,"MEAN_MOTION_DDOT":0},{"OBJECT_NAME":"LEMUR-2-ANDIS","OBJECT_ID":"2017-042P","EPOCH":"2025-03-09T11:38:49.774848","MEAN_MOTION":15.15208916,"ECCENTRICITY":0.001339,"INCLINATION":97.3602,"RA_OF_ASC_NODE":252.2247,"ARG_OF_PERICENTER":204.1071,"MEAN_ANOMALY":155.9537,"EPHEMERIS_TYPE":0,"CLASSIFICATION_TYPE":"U","NORAD_CAT_ID":42838,"ELEMENT_SET_NO":999,"REV_AT_EPOCH":41765,"BSTAR":0.0014971,"MEAN_MOTION_DOT":0.000282,"MEAN_MOTION_DDOT":0},{"OBJECT_NAME":"LEMUR-2-MONSON","OBJECT_ID":"2017-042Q","EPOCH":"2025-03-09T13:28:15.318624","MEAN_MOTION":15.12739802,"ECCENTRICITY":0.0009164,"INCLINATION":97.3959,"RA_OF_ASC_NODE":252.8052,"ARG_OF_PERICENTER":182.8962,"MEAN_ANOMALY":177.2217,"EPHEMERIS_TYPE":0,"CLASSIFICATION_TYPE":"U","NORAD_CAT_ID":42839,"ELEMENT_SET_NO":999,"REV_AT_EPOCH":41757,"BSTAR":0.0012464,"MEAN_MOTION_DOT":0.0002185,"MEAN_MOTION_DDOT":0},{"OBJECT_NAME":"LEMUR-2-FURIAUS","OBJECT_ID":"2017-042R","EPOCH":"2025-03-09T13:19:50.659680","MEAN_MOTION":15.13383744,"ECCENTRICITY":0.0010683,"INCLINATION":97.3648,"RA_OF_ASC_NODE":251.9219,"ARG_OF_PERICENTER":250.0367,"MEAN_ANOMALY":109.9715,"EPHEMERIS_TYPE":0,"CLASSIFICATION_TYPE":"U","NORAD_CAT_ID":42840,"ELEMENT_SET_NO":999,"REV_AT_EPOCH":41757,"BSTAR":0.0012957,"MEAN_MOTION_DOT":0.00023142,"MEAN_MOTION_DDOT":0},{"OBJECT_NAME":"LEMUR-2-PETERG","OBJECT_ID":"2017-042S","EPOCH":"2025-03-09T20:24:38.238048","MEAN_MOTION":15.14814477,"ECCENTRICITY":0.0005414,"INCLINATION":97.3935,"RA_OF_ASC_NODE":255.3473,"ARG_OF_PERICENTER":175.6668,"MEAN_ANOMALY":184.4612,"EPHEMERIS_TYPE":0,"CLASSIFICATION_TYPE":"U","NORAD_CAT_ID":42841,"ELEMENT_SET_NO":999,"REV_AT_EPOCH":41772,"BSTAR":0.001136,"MEAN_MOTION_DOT":0.00021086,"MEAN_MOTION_DDOT":0},{"OBJECT_NAME":"LEMUR-2-DEMBITZ","OBJECT_ID":"2017-042T","EPOCH":"2025-03-09T11:42:32.525280","MEAN_MOTION":15.13774992,"ECCENTRICITY":0.0009425,"INCLINATION":97.3766,"RA_OF_ASC_NODE":254.0141,"ARG_OF_PERICENTER":204.8282,"MEAN_ANOMALY":155.2497,"EPHEMERIS_TYPE":0,"CLASSIFICATION_TYPE":"U","NORAD_CAT_ID":42842,"ELEMENT_SET_NO":999,"REV_AT_EPOCH":41767,"BSTAR":0.001188,"MEAN_MOTION_DOT":0.00021435,"MEAN_MOTION_DDOT":0},{"OBJECT_NAME":"LEMUR-2-ZACHARY","OBJECT_ID":"2017-042W","EPOCH":"2025-03-09T11:19:34.182624","MEAN_MOTION":15.20459053,"ECCENTRICITY":0.0005701,"INCLINATION":97.3729,"RA_OF_ASC_NODE":256.5808,"ARG_OF_PERICENTER":238.4861,"MEAN_ANOMALY":121.5818,"EPHEMERIS_TYPE":0,"CLASSIFICATION_TYPE":"U","NORAD_CAT_ID":42845,"ELEMENT_SET_NO":999,"REV_AT_EPOCH":41799,"BSTAR":0.0015003,"MEAN_MOTION_DOT":0.00032812,"MEAN_MOTION_DDOT":0},{"OBJECT_NAME":"LEMUR-2-JIN-LUEN","OBJECT_ID":"2018-014C","EPOCH":"2025-03-09T17:37:16.119840","MEAN_MOTION":15.29092802,"ECCENTRICITY":0.001078,"INCLINATION":97.5661,"RA_OF_ASC_NODE":338.8824,"ARG_OF_PERICENTER":137.1439,"MEAN_ANOMALY":223.0642,"EPHEMERIS_TYPE":0,"CLASSIFICATION_TYPE":"U","NORAD_CAT_ID":43182,"ELEMENT_SET_NO":999,"REV_AT_EPOCH":38908,"BSTAR":0.0015256,"MEAN_MOTION_DOT":0.00043282,"MEAN_MOTION_DDOT":0},{"OBJECT_NAME":"LEMUR-2-URAMCHANSOL","OBJECT_ID":"2018-014D","EPOCH":"2025-03-09T16:32:02.560128","MEAN_MOTION":15.5206838,"ECCENTRICITY":0.0011897,"INCLINATION":97.5518,"RA_OF_ASC_NODE":344.2875,"ARG_OF_PERICENTER":109.8723,"MEAN_ANOMALY":250.3812,"EPHEMERIS_TYPE":0,"CLASSIFICATION_TYPE":"U","NORAD_CAT_ID":43183,"ELEMENT_SET_NO":999,"REV_AT_EPOCH":38943,"BSTAR":0.0024792,"MEAN_MOTION_DOT":0.00152477,"MEAN_MOTION_DDOT":0},{"OBJECT_NAME":"LEMUR-2-KADI","OBJECT_ID":"2018-014E","EPOCH":"2025-03-09T20:50:38.018976","MEAN_MOTION":15.29331107,"ECCENTRICITY":0.0010527,"INCLINATION":97.5296,"RA_OF_ASC_NODE":337.901,"ARG_OF_PERICENTER":114.5036,"MEAN_ANOMALY":245.7303,"EPHEMERIS_TYPE":0,"CLASSIFICATION_TYPE":"U","NORAD_CAT_ID":43184,"ELEMENT_SET_NO":999,"REV_AT_EPOCH":38914,"BSTAR":0.00121,"MEAN_MOTION_DOT":0.00034522,"MEAN_MOTION_DDOT":0},{"OBJECT_NAME":"LEMUR-2-THENICKMOLO","OBJECT_ID":"2018-014F","EPOCH":"2025-03-09T18:06:55.758528","MEAN_MOTION":15.3958423,"ECCENTRICITY":0.0007656,"INCLINATION":97.568,"RA_OF_ASC_NODE":341.7348,"ARG_OF_PERICENTER":107.0453,"MEAN_ANOMALY":253.1631,"EPHEMERIS_TYPE":0,"CLASSIFICATION_TYPE":"U","NORAD_CAT_ID":43185,"ELEMENT_SET_NO":999,"REV_AT_EPOCH":38928,"BSTAR":0.0018862,"MEAN_MOTION_DOT":0.00074852,"MEAN_MOTION_DDOT":0},{"OBJECT_NAME":"LEMUR-2-REMY-COLTON","OBJECT_ID":"2018-111J","EPOCH":"2025-03-09T17:44:57.027552","MEAN_MOTION":15.62588363,"ECCENTRICITY":0.0007917,"INCLINATION":97.6163,"RA_OF_ASC_NODE":357.256,"ARG_OF_PERICENTER":115.2786,"MEAN_ANOMALY":244.9293,"EPHEMERIS_TYPE":0,"CLASSIFICATION_TYPE":"U","NORAD_CAT_ID":43884,"ELEMENT_SET_NO":999,"REV_AT_EPOCH":33859,"BSTAR":0.003284,"MEAN_MOTION_DOT":0.0030375,"MEAN_MOTION_DDOT":0},{"OBJECT_NAME":"LEMUR-2-GUSTAVO","OBJECT_ID":"2018-111K","EPOCH":"2025-03-09T18:45:25.930368","MEAN_MOTION":15.60625464,"ECCENTRICITY":0.0010887,"INCLINATION":97.6126,"RA_OF_ASC_NODE":355.8399,"ARG_OF_PERICENTER":101.2927,"MEAN_ANOMALY":258.9553,"EPHEMERIS_TYPE":0,"CLASSIFICATION_TYPE":"U","NORAD_CAT_ID":43885,"ELEMENT_SET_NO":999,"REV_AT_EPOCH":34051,"BSTAR":0.0023343,"MEAN_MOTION_DOT":0.00197871,"MEAN_MOTION_DDOT":0},{"OBJECT_NAME":"LEMUR-2-ZO","OBJECT_ID":"2018-111L","EPOCH":"2025-03-09T18:13:06.240000","MEAN_MOTION":15.57252545,"ECCENTRICITY":0.0011577,"INCLINATION":97.6047,"RA_OF_ASC_NODE":354.5817,"ARG_OF_PERICENTER":109.0573,"MEAN_ANOMALY":251.1936,"EPHEMERIS_TYPE":0,"CLASSIFICATION_TYPE":"U","NORAD_CAT_ID":43886,"ELEMENT_SET_NO":999,"REV_AT_EPOCH":34049,"BSTAR":0.002703,"MEAN_MOTION_DOT":0.00201995,"MEAN_MOTION_DDOT":0},{"OBJECT_NAME":"LEMUR-2-NATALIEMURRAY","OBJECT_ID":"2018-111M","EPOCH":"2025-03-09T19:01:22.266912","MEAN_MOTION":15.68692768,"ECCENTRICITY":0.0011594,"INCLINATION":97.6054,"RA_OF_ASC_NODE":357.3342,"ARG_OF_PERICENTER":95.216,"MEAN_ANOMALY":265.0424,"EPHEMERIS_TYPE":0,"CLASSIFICATION_TYPE":"U","NORAD_CAT_ID":43887,"ELEMENT_SET_NO":999,"REV_AT_EPOCH":34058,"BSTAR":0.0032332,"MEAN_MOTION_DOT":0.00385366,"MEAN_MOTION_DDOT":0}]
